LEMUR-2-ARIANNA         
1 62699U 25009CU  26157.50147981  .00011523  00000+0  87546-3 0  9998
2 62699  97.6878 238.9711 0003024 147.7834 212.3576 15.02323221 75956
LEMUR-2-ALISIA          
1 62706U 25009DB  26157.48144058  .00010769  00000+0  81239-3 0  9990
2 62706  97.6967 239.7242 0000731 190.8641 169.2568 15.02615589 98552
LEMUR-2-ROUNDTRIPPER    
1 62711U 25009DG  26157.51325065  .00012328  00000+0  90490-3 0  9991
2 62711  97.7231 240.2091 0004297 165.8436 194.2910 15.03609690 76021
LEMUR-2-MYNAMEISJEFF    
1 62712U 25009DH  26157.51174448  .00011973  00000+0  87872-3 0  9994
2 62712  97.7283 240.5819 0002564 196.4260 163.6882 15.03625946 76020
LEMUR-2-LEIA-PHILIP     
1 63246U 25052AN  26157.64449222  .00002181  00000+0  19318-3 0  9995
2 63246  97.6844  49.7721 0002096 258.3726 101.7261 14.97284545 67090
LEMUR-2-LIA-MARTIN      
1 63248U 25052AQ  26157.65277127  .00006601  00000+0  56792-3 0  9999
2 63248  97.6902  50.2394 0002196 177.9639 182.1593 14.97712436 67108
LEMUR-2-DELOITTE-1      
1 63259U 25052BB  26157.62775330  .00004444  00000+0  38591-3 0  9997
2 63259  97.6917  50.5442 0002273 117.2997 242.8457 14.97523139 67117
LEMUR-2-EMERSONROSE     
1 63261U 25052BD  26157.94711919  .00003963  00000+0  33177-3 0  9998
2 63261  97.6906  51.3978 0002583  75.6226 284.5283 14.99012412 67206
LEMUR-2-MARACHE-FRAN    
1 63262U 25052BE  26157.66246346  .00007452  00000+0  60368-3 0  9994
2 63262  97.6943  51.4102 0006301  56.4568 303.7257 14.99988393 67188
LEMUR-2-THEFALCONER     
1 63264U 25052BG  26157.65268344  .00005235  00000+0  45609-3 0  9995
2 63264  97.6873  50.1996 0003597  63.4166 296.7425 14.97317034 67112
LEMUR-2-UNTITLED-SC     
1 63351U 25061A   26158.17122824  .00003726  00000+0  21177-3 0  9999
2 63351  97.5632 133.6068 0017160 302.8896  57.0683 15.13402964 66073
LEMUR-2-ESPERANZA       
1 63352U 25061B   26158.21509782  .00004508  00000+0  25475-3 0  9991
2 63352  97.5641 133.7417 0016862 302.1073  57.8521 15.13496987 66089
LEMUR-2-KREMPEL-BRO2    
1 63353U 25061C   26158.17884258  .00003997  00000+0  22355-3 0  9996
2 63353  97.5688 134.2260 0017545 293.8266  66.1126 15.13931146 66098
LEMUR-2-THERMORAPTOR    
1 63354U 25061D   26157.17005339  .00004837  00000+0  26919-3 0  9995
2 63354  97.5693 133.2970 0017353 296.5843  63.3609 15.14001058 65949
LEMUR-2-NEUROSPICY      
1 63355U 25061E   26158.19995112  .00004679  00000+0  25982-3 0  9999
2 63355  97.5622 133.9549 0015188 297.1211  62.8471 15.14124373 66107
LEMUR-2-TILLINFINITY    
1 63356U 25061F   26158.17300960  .00004074  00000+0  22297-3 0  9994
2 63356  97.5607 134.2115 0016230 283.6464  76.2960 15.14710101 66127
LEMUR-2-KREMPEL-BRO1    
1 63357U 25061G   26158.21126628  .00004832  00000+0  26512-3 0  9993
2 63357  97.5607 134.1685 0016953 284.8391  75.0963 15.14516117 66124
LEMUR-2-LANGER2SPACE    
1 63358U 25061H   26158.16969598  .00003936  00000+0  21865-3 0  9999
2 63358  97.5611 133.9450 0015007 295.2666  64.7010 15.14212057 66109
LEMUR-2-BALTO           
1 63395U 25052BH  26157.64701717  .00006799  00000+0  55146-3 0  9998
2 63395  97.6877  51.3812 0006515  84.0846 276.1120 14.99971511 67187
LEMUR-2-KRISH           
1 64561U 25135AK  26157.57428907  .00006201  00000+0  55630-3 0  9991
2 64561  97.7727 272.5262 0001128 103.2930 256.8417 14.96106318 52334
LEMUR-2-HUBBLE-4        
1 64565U 25135AP  26157.61542323  .00001767  00000+0  17466-3 0  9996
2 64565  97.7688 271.6508 0001770   3.7631 356.3601 14.93168483 52296
LEMUR-2-SEJONG-2        
1 64586U 25135BL  26158.27641106  .00005604  00000+0  49667-3 0  9993
2 64586  97.7684 273.3667 0004643  22.6357 337.5069 14.96621800 52465
LEMUR-2-HUBBLE-5        
1 64840U 25135BT  26158.04492217  .00001583  00000+0  15341-3 0  9992
2 64840  97.7708 272.6920 0005911  27.0653 333.0874 14.94103468 52396
LEMUR-2-KARENDARRELL    
1 64841U 25135BU  26158.04549445  .00009121  00000+0  73783-3 0  9999
2 64841  97.7672 274.2728 0009073 241.6749 118.3559 14.99964938 52491
LEMUR-2-LUCILLE-ROSE    
1 65403U 25135BV  26156.88555324  .00009851  00000+0  79533-3 0  9996
2 65403  97.7773 273.1201 0010649 327.0038  33.0519 15.00006001 46946
LEMUR-2-AFFIE-WAUWIE    
1 66295U 25248C   26158.30799736  .00013749  00000+0  52119-3 0  9999
2 66295  45.3866 168.5000 0008835  20.2835 339.8404 15.26866519 33080
LEMUR-2-DEANANDMAEVE    
1 66678U 25276N   26157.45011831  .00008600  00000+0  40674-3 0  9996
2 66678  97.4208 231.1049 0006706  49.1401 311.0414 15.19599967 28783
LEMUR-2-STAS-GORBUK     
1 66686U 25276W   26157.98910721  .00006517  00000+0  31205-3 0  9994
2 66686  97.4243 231.6907 0006131  47.6372 312.5381 15.19272593 28862
LEMUR-2-TEODOR          
1 66768U 25276DG  26157.65509887  .00006575  00000+0  30010-3 0  9993
2 66768  97.4148 231.5855 0001816 124.2674 235.8734 15.20935246 28840
LEMUR-2-LAILA           
1 66776U 25276DQ  26158.02523027  .00007135  00000+0  32330-3 0  9996
2 66776  97.4170 232.0640 0001529 148.3505 211.7823 15.21159111 28902
